{
  "type": "FeatureCollection",
  "features": [
    {
      "type": "Feature",
      "properties": {
        "norad_id": 41866,
        "name": "GOES 16",
        "group": "weather",
        "lat": 0.028829533229130785,
        "lon": 114.30168861607746,
        "alt_km": 35798.41681955846,
        "timestamp": "2025-12-06T09:34:16.561543+00:00",
        "meta_object_name": "GOES 16",
        "meta_object_id": "2016-071A",
        "meta_epoch": "2025-12-05T21:45:32.932224",
        "meta_mean_motion": 1.00271223,
        "meta_eccentricity": 0.00035325,
        "meta_inclination": 0.0617,
        "meta_ra_of_asc_node": 109.3908,
        "meta_arg_of_pericenter": 149.3785,
        "meta_mean_anomaly": 37.9024,
        "meta_ephemeris_type": 0,
        "meta_classification_type": "U",
        "meta_norad_cat_id": 41866,
        "meta_element_set_no": 999,
        "meta_rev_at_epoch": 3316,
        "meta_bstar": 0,
        "meta_mean_motion_dot": -8.2e-07,
        "meta_mean_motion_ddot": 0,
        "tle_line1": "1 41866U 16071A   25339.90663116 -.00000082  00000+0  00000+0 0  9993",
        "tle_line2": "2 41866   0.0617 109.3908 0003532 149.3785  37.9024  1.00271223 33167"
      },
      "geometry": {
        "type": "Point",
        "coordinates": [
          114.30168861607746,
          0.028829533229130785
        ]
      }
    },
    {
      "type": "Feature",
      "properties": {
        "norad_id": 41882,
        "name": "FENGYUN 4A",
        "group": "weather",
        "lat": -1.8039573464584089,
        "lon": -17.159772385608235,
        "alt_km": 35794.70636938609,
        "timestamp": "2025-12-06T09:34:16.561555+00:00",
        "meta_object_name": "FENGYUN 4A",
        "meta_object_id": "2016-077A",
        "meta_epoch": "2025-12-05T20:47:51.810432",
        "meta_mean_motion": 1.00276894,
        "meta_eccentricity": 0.00050414,
        "meta_inclination": 1.8308,
        "meta_ra_of_asc_node": 82.4599,
        "meta_arg_of_pericenter": 142.8916,
        "meta_mean_anomaly": 285.3135,
        "meta_ephemeris_type": 0,
        "meta_classification_type": "U",
        "meta_norad_cat_id": 41882,
        "meta_element_set_no": 999,
        "meta_rev_at_epoch": 3299,
        "meta_bstar": 0,
        "meta_mean_motion_dot": -3.48e-06,
        "meta_mean_motion_ddot": 0,
        "tle_line1": "1 41882U 16077A   25339.86657188 -.00000348  00000+0  00000+0 0  9999",
        "tle_line2": "2 41882   1.8308  82.4599 0005041 142.8916 285.3135  1.00276894 32990"
      },
      "geometry": {
        "type": "Point",
        "coordinates": [
          -17.159772385608235,
          -1.8039573464584089
        ]
      }
    },
    {
      "type": "Feature",
      "properties": {
        "norad_id": 41884,
        "name": "CYGFM05",
        "group": "weather",
        "lat": -34.125755459162804,
        "lon": -15.524214512114039,
        "alt_km": 431.23350732847666,
        "timestamp": "2025-12-06T09:34:16.561566+00:00",
        "meta_object_name": "CYGFM05",
        "meta_object_id": "2016-078A",
        "meta_epoch": "2025-12-05T16:58:33.047616",
        "meta_mean_motion": 15.47251578,
        "meta_eccentricity": 0.0009401,
        "meta_inclination": 34.9591,
        "meta_ra_of_asc_node": 93.0531,
        "meta_arg_of_pericenter": 116.8148,
        "meta_mean_anomaly": 243.3536,
        "meta_ephemeris_type": 0,
        "meta_classification_type": "U",
        "meta_norad_cat_id": 41884,
        "meta_element_set_no": 999,
        "meta_rev_at_epoch": 49867,
        "meta_bstar": 0.00055902802,
        "meta_mean_motion_dot": 0.00029452,
        "meta_mean_motion_ddot": 0,
        "tle_line1": "1 41884U 16078A   25339.70732694  .00029452  00000+0  55903-3 0  9993",
        "tle_line2": "2 41884  34.9591  93.0531 0009401 116.8148 243.3536 15.47251578498677"
      },
      "geometry": {
        "type": "Point",
        "coordinates": [
          -15.524214512114039,
          -34.125755459162804
        ]
      }
    },
    {
      "type": "Feature",
      "properties": {
        "norad_id": 41885,
        "name": "CYGFM04",
        "group": "weather",
        "lat": 33.67478508762048,
        "lon": 136.15186887108558,
        "alt_km": 409.25033668290234,
        "timestamp": "2025-12-06T09:34:16.561577+00:00",
        "meta_object_name": "CYGFM04",
        "meta_object_id": "2016-078B",
        "meta_epoch": "2025-12-05T22:25:32.911680",
        "meta_mean_motion": 15.49939576,
        "meta_eccentricity": 0.00086144,
        "meta_inclination": 34.9354,
        "meta_ra_of_asc_node": 66.5436,
        "meta_arg_of_pericenter": 148.2423,
        "meta_mean_anomaly": 211.8819,
        "meta_ephemeris_type": 0,
        "meta_classification_type": "U",
        "meta_norad_cat_id": 41885,
        "meta_element_set_no": 999,
        "meta_rev_at_epoch": 49888,
        "meta_bstar": 0.00051086426,
        "meta_mean_motion_dot": 0.00029575,
        "meta_mean_motion_ddot": 0,
        "tle_line1": "1 41885U 16078B   25339.93440870  .00029575  00000+0  51086-3 0  9995",
        "tle_line2": "2 41885  34.9354  66.5436 0008614 148.2423 211.8819 15.49939576498884"
      },
      "geometry": {
        "type": "Point",
        "coordinates": [
          136.15186887108558,
          33.67478508762048
        ]
      }
    },
    {
      "type": "Feature",
      "properties": {
        "norad_id": 41886,
        "name": "CYGFM02",
        "group": "weather",
        "lat": 28.81544505283279,
        "lon": 113.88865716264583,
        "alt_km": 407.9693977031793,
        "timestamp": "2025-12-06T09:34:16.561588+00:00",
        "meta_object_name": "CYGFM02",
        "meta_object_id": "2016-078C",
        "meta_epoch": "2025-12-05T22:30:50.003136",
        "meta_mean_motion": 15.51291349,
        "meta_eccentricity": 0.00103484,
        "meta_inclination": 34.9442,
        "meta_ra_of_asc_node": 64.9325,
        "meta_arg_of_pericenter": 147.7014,
        "meta_mean_anomaly": 212.4344,
        "meta_ephemeris_type": 0,
        "meta_classification_type": "U",
        "meta_norad_cat_id": 41886,
        "meta_element_set_no": 999,
        "meta_rev_at_epoch": 49901,
        "meta_bstar": 0.00052224051,
        "meta_mean_motion_dot": 0.00031761,
        "meta_mean_motion_ddot": 0,
        "tle_line1": "1 41886U 16078C   25339.93807874  .00031761  00000+0  52224-3 0  9992",
        "tle_line2": "2 41886  34.9442  64.9325 0010348 147.7014 212.4344 15.51291349499017"
      },
      "geometry": {
        "type": "Point",
        "coordinates": [
          113.88865716264583,
          28.81544505283279
        ]
      }
    },
    {
      "type": "Feature",
      "properties": {
        "norad_id": 41887,
        "name": "CYGFM01",
        "group": "weather",
        "lat": -32.7000573813499,
        "lon": 24.0834001095449,
        "alt_km": 431.0303077308854,
        "timestamp": "2025-12-06T09:34:16.561599+00:00",
        "meta_object_name": "CYGFM01",
        "meta_object_id": "2016-078D",
        "meta_epoch": "2025-12-05T18:23:47.456736",
        "meta_mean_motion": 15.47824248,
        "meta_eccentricity": 0.00089679,
        "meta_inclination": 34.9423,
        "meta_ra_of_asc_node": 95.0659,
        "meta_arg_of_pericenter": 107.7777,
        "meta_mean_anomaly": 252.3924,
        "meta_ephemeris_type": 0,
        "meta_classification_type": "U",
        "meta_norad_cat_id": 41887,
        "meta_element_set_no": 999,
        "meta_rev_at_epoch": 49862,
        "meta_bstar": 0.00057467531,
        "meta_mean_motion_dot": 0.00030892,
        "meta_mean_motion_ddot": 0,
        "tle_line1": "1 41887U 16078D   25339.76652149  .00030892  00000+0  57468-3 0  9996",
        "tle_line2": "2 41887  34.9423  95.0659 0008967 107.7777 252.3924 15.47824248498626"
      },
      "geometry": {
        "type": "Point",
        "coordinates": [
          24.0834001095449,
          -32.7000573813499
        ]
      }
    },
    {
      "type": "Feature",
      "properties": {
        "norad_id": 41888,
        "name": "CYGFM08",
        "group": "weather",
        "lat": -25.888607776489806,
        "lon": 29.971650402312353,
        "alt_km": 428.27594347029117,
        "timestamp": "2025-12-06T09:34:16.561610+00:00",
        "meta_object_name": "CYGFM08",
        "meta_object_id": "2016-078E",
        "meta_epoch": "2025-12-05T22:57:29.299968",
        "meta_mean_motion": 15.49018099,
        "meta_eccentricity": 0.00107787,
        "meta_inclination": 34.946,
        "meta_ra_of_asc_node": 76.8947,
        "meta_arg_of_pericenter": 135.6475,
        "meta_mean_anomaly": 224.5112,
        "meta_ephemeris_type": 0,
        "meta_classification_type": "U",
        "meta_norad_cat_id": 41888,
        "meta_element_set_no": 999,
        "meta_rev_at_epoch": 49888,
        "meta_bstar": 0.00051415342,
        "meta_mean_motion_dot": 0.00028831,
        "meta_mean_motion_ddot": 0,
        "tle_line1": "1 41888U 16078E   25339.95658912  .00028831  00000+0  51415-3 0  9998",
        "tle_line2": "2 41888  34.9460  76.8947 0010778 135.6475 224.5112 15.49018099498882"
      },
      "geometry": {
        "type": "Point",
        "coordinates": [
          29.971650402312353,
          -25.888607776489806
        ]
      }
    }
  ]
}